FENGYUN 1C DEB          
1 37048U 99025EEG 17345.44389274  .00000055  00000-0  98072-4 0  9998
2 37048  98.9358  48.4973 0257902 210.7361 217.8975 13.62360806223399
